<?xml version="1.0" encoding="UTF-8"?>
<kml xmlns="http://www.opengis.net/kml/2.2">
<Document>
  <name>HADR Flood Simulation — SPH — 2256ca8e</name>
  <description>
    MOCK SPH — DEMONSTRATION ONLY.
    Not a real simulation result.
  </description>

  <Placemark>
    <name>0–0.5m — SPH</name>
    <description>
      Depth class: 0–0.5m
      Model: MOCK SPH
      MOCK SPH — DEMONSTRATION ONLY
    </description>
    <Style>
      <PolyStyle>
        <color>9676F1FF</color>
        <outline>1</outline>
      </PolyStyle>
    </Style>
    <Polygon>
      <outerBoundaryIs>
        <LinearRing>
          <coordinates>79.8,30.34330708661417,0 79.99606299212599,30.34330708661417,0 79.99606299212599,30.2,0 79.8,30.2,0 79.8,30.34330708661417,0</coordinates>
        </LinearRing>
      </outerBoundaryIs>
    </Polygon>
  </Placemark>
  <Placemark>
    <name>0.5–1m — SPH</name>
    <description>
      Depth class: 0.5–1m
      Model: MOCK SPH
      MOCK SPH — DEMONSTRATION ONLY
    </description>
    <Style>
      <PolyStyle>
        <color>9600B3FF</color>
        <outline>1</outline>
      </PolyStyle>
    </Style>
    <Polygon>
      <outerBoundaryIs>
        <LinearRing>
          <coordinates>79.8,30.349606299212596,0 79.96771653543307,30.349606299212596,0 79.96771653543307,30.2,0 79.8,30.2,0 79.8,30.349606299212596,0</coordinates>
        </LinearRing>
      </outerBoundaryIs>
    </Polygon>
  </Placemark>
  <Placemark>
    <name>1–2m — SPH</name>
    <description>
      Depth class: 1–2m
      Model: MOCK SPH
      MOCK SPH — DEMONSTRATION ONLY
    </description>
    <Style>
      <PolyStyle>
        <color>96007CF5</color>
        <outline>1</outline>
      </PolyStyle>
    </Style>
    <Polygon>
      <outerBoundaryIs>
        <LinearRing>
          <coordinates>79.8,30.349606299212596,0 79.9511811023622,30.349606299212596,0 79.9511811023622,30.2,0 79.8,30.2,0 79.8,30.349606299212596,0</coordinates>
        </LinearRing>
      </outerBoundaryIs>
    </Polygon>
  </Placemark>
  <Placemark>
    <name>2–5m — SPH</name>
    <description>
      Depth class: 2–5m
      Model: MOCK SPH
      MOCK SPH — DEMONSTRATION ONLY
    </description>
    <Style>
      <PolyStyle>
        <color>962F2FD3</color>
        <outline>1</outline>
      </PolyStyle>
    </Style>
    <Polygon>
      <outerBoundaryIs>
        <LinearRing>
          <coordinates>79.8,30.349606299212596,0 79.93228346456692,30.349606299212596,0 79.93228346456692,30.2,0 79.8,30.2,0 79.8,30.349606299212596,0</coordinates>
        </LinearRing>
      </outerBoundaryIs>
    </Polygon>
  </Placemark>
  <Placemark>
    <name>>5m — SPH</name>
    <description>
      Depth class: >5m
      Model: MOCK SPH
      MOCK SPH — DEMONSTRATION ONLY
    </description>
    <Style>
      <PolyStyle>
        <color>96A21F7B</color>
        <outline>1</outline>
      </PolyStyle>
    </Style>
    <Polygon>
      <outerBoundaryIs>
        <LinearRing>
          <coordinates>79.8,30.349606299212596,0 79.90629921259843,30.349606299212596,0 79.90629921259843,30.2,0 79.8,30.2,0 79.8,30.349606299212596,0</coordinates>
        </LinearRing>
      </outerBoundaryIs>
    </Polygon>
  </Placemark>
</Document>
</kml>