{
  "type": "FeatureCollection",
  "features": [
    {
      "type": "Feature",
      "geometry": {
        "type": "Polygon",
        "coordinates": [
          [
            [
              79.8,
              30.34330708661417
            ],
            [
              79.99606299212599,
              30.34330708661417
            ],
            [
              79.99606299212599,
              30.2
            ],
            [
              79.8,
              30.2
            ],
            [
              79.8,
              30.34330708661417
            ]
          ]
        ]
      },
      "properties": {
        "depth_class": "0\u20130.5m",
        "depth_min_m": 0.1,
        "depth_max_m": 0.5,
        "color": "#FFF176",
        "model": "MOCK SPH",
        "is_mock": true
      }
    },
    {
      "type": "Feature",
      "geometry": {
        "type": "Polygon",
        "coordinates": [
          [
            [
              79.8,
              30.349606299212596
            ],
            [
              79.96771653543307,
              30.349606299212596
            ],
            [
              79.96771653543307,
              30.2
            ],
            [
              79.8,
              30.2
            ],
            [
              79.8,
              30.349606299212596
            ]
          ]
        ]
      },
      "properties": {
        "depth_class": "0.5\u20131m",
        "depth_min_m": 0.5,
        "depth_max_m": 1.0,
        "color": "#FFB300",
        "model": "MOCK SPH",
        "is_mock": true
      }
    },
    {
      "type": "Feature",
      "geometry": {
        "type": "Polygon",
        "coordinates": [
          [
            [
              79.8,
              30.349606299212596
            ],
            [
              79.9511811023622,
              30.349606299212596
            ],
            [
              79.9511811023622,
              30.2
            ],
            [
              79.8,
              30.2
            ],
            [
              79.8,
              30.349606299212596
            ]
          ]
        ]
      },
      "properties": {
        "depth_class": "1\u20132m",
        "depth_min_m": 1.0,
        "depth_max_m": 2.0,
        "color": "#F57C00",
        "model": "MOCK SPH",
        "is_mock": true
      }
    },
    {
      "type": "Feature",
      "geometry": {
        "type": "Polygon",
        "coordinates": [
          [
            [
              79.8,
              30.349606299212596
            ],
            [
              79.93228346456692,
              30.349606299212596
            ],
            [
              79.93228346456692,
              30.2
            ],
            [
              79.8,
              30.2
            ],
            [
              79.8,
              30.349606299212596
            ]
          ]
        ]
      },
      "properties": {
        "depth_class": "2\u20135m",
        "depth_min_m": 2.0,
        "depth_max_m": 5.0,
        "color": "#D32F2F",
        "model": "MOCK SPH",
        "is_mock": true
      }
    },
    {
      "type": "Feature",
      "geometry": {
        "type": "Polygon",
        "coordinates": [
          [
            [
              79.8,
              30.349606299212596
            ],
            [
              79.90629921259843,
              30.349606299212596
            ],
            [
              79.90629921259843,
              30.2
            ],
            [
              79.8,
              30.2
            ],
            [
              79.8,
              30.349606299212596
            ]
          ]
        ]
      },
      "properties": {
        "depth_class": ">5m",
        "depth_min_m": 5.0,
        "depth_max_m": 999.0,
        "color": "#7B1FA2",
        "model": "MOCK SPH",
        "is_mock": true
      }
    }
  ],
  "properties": {
    "model": "MOCK SPH",
    "is_mock": true,
    "disclaimer": "MOCK SPH \u2014 DEMONSTRATION ONLY",
    "flood_threshold_m": 0.1
  }
}